start=new Date('2022-02-10T00:00:00.000Z').valueOf();
sats=[{"APOAPSIS":"350.893","MEAN_MOTION":"15.73224341","RA_OF_ASC_NODE":"166.6709","SEMIMAJOR_AXIS":"6727.826","NORAD_CAT_ID":"51107","MEAN_MOTION_DOT":"-0.00029190","PERIAPSIS":"348.489","FILE":"3296271","LAUNCH_DATE":"2022-01-19","TLE_LINE2":"2 51107  53.2179 166.6709 0001787  28.9047  94.1582 15.73224341  4747","MEAN_MOTION_DDOT":"0.0000000000000","PERIOD":"91.532","MEAN_ELEMENT_THEORY":"SGP4","EPHEMERIS_TYPE":"0","OBJECT_ID":"2022-005D","REF_FRAME":"TEME","EPOCH":"2022-02-09T20:00:01.000224","INCLINATION":"53.2179","REV_AT_EPOCH":"474","DECAY_DATE":null,"ECCENTRICITY":"0.00017870","OBJECT_NAME":"STARLINK-3368","CLASSIFICATION_TYPE":"U","GP_ID":"195648654","ELEMENT_SET_NO":"999","MEAN_ANOMALY":"94.1582","SITE":"AFETR","TLE_LINE1":"1 51107U 22005D   22040.83334491 -.00029190  00000-0 -20405-3 0  9993","TIME_SYSTEM":"UTC","RCS_SIZE":"LARGE","ARG_OF_PERICENTER":"28.9047","COUNTRY_CODE":"US","OBJECT_TYPE":"PAYLOAD","BSTAR":"-0.00020405000000","CENTER_NAME":"EARTH"},{"APOAPSIS":"351.025","MEAN_MOTION":"15.73208946","RA_OF_ASC_NODE":"166.6695","SEMIMAJOR_AXIS":"6727.870","NORAD_CAT_ID":"51108","LAUNCH_DATE":"2022-01-19","FILE":"3296200","PERIAPSIS":"348.444","MEAN_MOTION_DOT":"-0.00014736","EPHEMERIS_TYPE":"0","MEAN_ELEMENT_THEORY":"SGP4","PERIOD":"91.533","MEAN_MOTION_DDOT":"0.0000000000000","TLE_LINE2":"2 51108  53.2163 166.6695 0001918  28.2708  96.0512 15.73208946  4745","REF_FRAME":"TEME","OBJECT_ID":"2022-005E","REV_AT_EPOCH":"474","INCLINATION":"53.2163","EPOCH":"2022-02-09T20:00:01.000224","DECAY_DATE":null,"OBJECT_NAME":"STARLINK-3362","CLASSIFICATION_TYPE":"U","ECCENTRICITY":"0.00019180","GP_ID":"195647471","ELEMENT_SET_NO":"999","RCS_SIZE":"LARGE","TIME_SYSTEM":"UTC","SITE":"AFETR","TLE_LINE1":"1 51108U 22005E   22040.83334491 -.00014736  00000-0 -10071-3 0  9992","MEAN_ANOMALY":"96.0512","COUNTRY_CODE":"US","ARG_OF_PERICENTER":"28.2708","CENTER_NAME":"EARTH","BSTAR":"-0.00010071000000","OBJECT_TYPE":"PAYLOAD"},{"REF_FRAME":"TEME","OBJECT_ID":"2022-005F","EPOCH":"2022-02-09T17:57:49.666464","REV_AT_EPOCH":"474","INCLINATION":"53.2165","DECAY_DATE":null,"APOAPSIS":"350.438","MEAN_MOTION":"15.74818626","NORAD_CAT_ID":"51109","SEMIMAJOR_AXIS":"6723.284","RA_OF_ASC_NODE":"166.3446","PERIAPSIS":"339.861","MEAN_MOTION_DOT":"-0.00049310","LAUNCH_DATE":"2022-01-19","FILE":"3296200","MEAN_MOTION_DDOT":"0.0000000000000","TLE_LINE2":"2 51109  53.2165 166.3446 0007866  10.3246 349.7935 15.74818626  4746","EPHEMERIS_TYPE":"0","PERIOD":"91.439","MEAN_ELEMENT_THEORY":"SGP4","ELEMENT_SET_NO":"999","SITE":"AFETR","TLE_LINE1":"1 51109U 22005F   22040.74849151 -.00049310  00000-0 -32456-3 0  9994","MEAN_ANOMALY":"349.7935","RCS_SIZE":"LARGE","TIME_SYSTEM":"UTC","ARG_OF_PERICENTER":"10.3246","COUNTRY_CODE":"US","BSTAR":"-0.00032456000000","OBJECT_TYPE":"PAYLOAD","CENTER_NAME":"EARTH","ECCENTRICITY":"0.00078660","OBJECT_NAME":"STARLINK-3358","CLASSIFICATION_TYPE":"U","GP_ID":"195647475"},{"APOAPSIS":"351.335","MEAN_MOTION":"15.73136339","SEMIMAJOR_AXIS":"6728.077","NORAD_CAT_ID":"51110","RA_OF_ASC_NODE":"166.6666","PERIAPSIS":"348.548","MEAN_MOTION_DOT":"0.00084245","LAUNCH_DATE":"2022-01-19","FILE":"3296200","MEAN_MOTION_DDOT":"0.0000000000000","TLE_LINE2":"2 51110  53.2162 166.6666 0002071  22.7798 102.7239 15.73136339  4741","EPHEMERIS_TYPE":"0","PERIOD":"91.537","MEAN_ELEMENT_THEORY":"SGP4","OBJECT_ID":"2022-005G","REF_FRAME":"TEME","EPOCH":"2022-02-09T20:00:01.000224","REV_AT_EPOCH":"474","INCLINATION":"53.2162","DECAY_DATE":null,"ECCENTRICITY":"0.00020710","CLASSIFICATION_TYPE":"U","OBJECT_NAME":"STARLINK-3344","GP_ID":"195647477","ELEMENT_SET_NO":"999","SITE":"AFETR","TLE_LINE1":"1 51110U 22005G   22040.83334491  .00084245  00000-0  60027-3 0  9991","MEAN_ANOMALY":"102.7239","RCS_SIZE":"LARGE","TIME_SYSTEM":"UTC","ARG_OF_PERICENTER":"22.7798","COUNTRY_CODE":"US","BSTAR":"0.00060027000000","OBJECT_TYPE":"PAYLOAD","CENTER_NAME":"EARTH"},{"OBJECT_ID":"2022-005H","REF_FRAME":"TEME","EPOCH":"2022-02-09T20:00:01.000224","INCLINATION":"53.2162","REV_AT_EPOCH":"474","DECAY_DATE":null,"MEAN_MOTION":"15.73211231","APOAPSIS":"351.292","NORAD_CAT_ID":"51111","SEMIMAJOR_AXIS":"6727.863","RA_OF_ASC_NODE":"166.6573","MEAN_MOTION_DOT":"-0.00016564","PERIAPSIS":"348.165","FILE":"3296200","LAUNCH_DATE":"2022-01-19","TLE_LINE2":"2 51111  53.2162 166.6573 0002324  29.6863 100.3203 15.73211231  4749","MEAN_MOTION_DDOT":"0.0000000000000","MEAN_ELEMENT_THEORY":"SGP4","PERIOD":"91.533","EPHEMERIS_TYPE":"0","ELEMENT_SET_NO":"999","MEAN_ANOMALY":"100.3203","SITE":"AFETR","TLE_LINE1":"1 51111U 22005H   22040.83334491 -.00016564  00000-0 -11375-3 0  9995","TIME_SYSTEM":"UTC","RCS_SIZE":"LARGE","ARG_OF_PERICENTER":"29.6863","COUNTRY_CODE":"US","OBJECT_TYPE":"PAYLOAD","BSTAR":"-0.00011375000000","CENTER_NAME":"EARTH","ECCENTRICITY":"0.00023240","OBJECT_NAME":"STARLINK-3173","CLASSIFICATION_TYPE":"U","GP_ID":"195647044"},{"FILE":"3296200","LAUNCH_DATE":"2022-01-19","MEAN_MOTION_DOT":"-0.00025292","PERIAPSIS":"348.238","PERIOD":"91.531","MEAN_ELEMENT_THEORY":"SGP4","EPHEMERIS_TYPE":"0","TLE_LINE2":"2 51112  53.2180 166.6646 0002081  24.4664 101.7070 15.73242927  4746","MEAN_MOTION_DDOT":"0.0000000000000","MEAN_MOTION":"15.73242927","APOAPSIS":"351.038","NORAD_CAT_ID":"51112","SEMIMAJOR_AXIS":"6727.773","RA_OF_ASC_NODE":"166.6646","DECAY_DATE":null,"REF_FRAME":"TEME","OBJECT_ID":"2022-005J","INCLINATION":"53.2180","REV_AT_EPOCH":"474","EPOCH":"2022-02-09T20:00:01.000224","GP_ID":"195647467","CLASSIFICATION_TYPE":"U","OBJECT_NAME":"STARLINK-3374","ECCENTRICITY":"0.00020810","COUNTRY_CODE":"US","ARG_OF_PERICENTER":"24.4664","CENTER_NAME":"EARTH","OBJECT_TYPE":"PAYLOAD","BSTAR":"-0.00017598000000","ELEMENT_SET_NO":"999","TIME_SYSTEM":"UTC","RCS_SIZE":"LARGE","MEAN_ANOMALY":"101.7070","TLE_LINE1":"1 51112U 22005J   22040.83334491 -.00025292  00000-0 -17598-3 0  9997","SITE":"AFETR"},{"PERIAPSIS":"348.283","MEAN_MOTION_DOT":"-0.00016816","LAUNCH_DATE":"2022-01-19","FILE":"3296194","MEAN_MOTION_DDOT":"0.0000000000000","TLE_LINE2":"2 51113  53.2165 166.6609 0002116  31.1949  96.8977 15.73218645  4749","EPHEMERIS_TYPE":"0","MEAN_ELEMENT_THEORY":"SGP4","PERIOD":"91.532","APOAPSIS":"351.131","MEAN_MOTION":"15.73218645","SEMIMAJOR_AXIS":"6727.842","NORAD_CAT_ID":"51113","RA_OF_ASC_NODE":"166.6609","DECAY_DATE":null,"REF_FRAME":"TEME","OBJECT_ID":"2022-005K","EPOCH":"2022-02-09T20:00:01.000224","REV_AT_EPOCH":"474","INCLINATION":"53.2165","GP_ID":"195647486","ECCENTRICITY":"0.00021160","CLASSIFICATION_TYPE":"U","OBJECT_NAME":"STARLINK-3372","ARG_OF_PERICENTER":"31.1949","COUNTRY_CODE":"US","BSTAR":"-0.00011552000000","OBJECT_TYPE":"PAYLOAD","CENTER_NAME":"EARTH","ELEMENT_SET_NO":"999","TLE_LINE1":"1 51113U 22005K   22040.83334491 -.00016816  00000-0 -11552-3 0  9994","SITE":"AFETR","MEAN_ANOMALY":"96.8977","RCS_SIZE":"LARGE","TIME_SYSTEM":"UTC"},{"BSTAR":"-0.00022001000000","OBJECT_TYPE":"PAYLOAD","CENTER_NAME":"EARTH","ARG_OF_PERICENTER":"34.1754","COUNTRY_CODE":"US","SITE":"AFETR","TLE_LINE1":"1 51114U 22005L   22040.83334491 -.00031423  00000-0 -22001-3 0  9997","MEAN_ANOMALY":"90.7724","RCS_SIZE":"LARGE","TIME_SYSTEM":"UTC","ELEMENT_SET_NO":"999","GP_ID":"195647482","ECCENTRICITY":"0.00023880","OBJECT_NAME":"STARLINK-3375","CLASSIFICATION_TYPE":"U","DECAY_DATE":null,"EPOCH":"2022-02-09T20:00:01.000224","REV_AT_EPOCH":"474","INCLINATION":"53.2165","OBJECT_ID":"2022-005L","REF_FRAME":"TEME","MEAN_MOTION_DDOT":"0.0000000000000","TLE_LINE2":"2 51114  53.2165 166.6681 0002388  34.1754  90.7724 15.73226819  4743","EPHEMERIS_TYPE":"0","PERIOD":"91.532","MEAN_ELEMENT_THEORY":"SGP4","PERIAPSIS":"348.077","MEAN_MOTION_DOT":"-0.00031423","LAUNCH_DATE":"2022-01-19","FILE":"3296194","SEMIMAJOR_AXIS":"6727.819","NORAD_CAT_ID":"51114","RA_OF_ASC_NODE":"166.6681","MEAN_MOTION":"15.73226819","APOAPSIS":"351.290"},{"SEMIMAJOR_AXIS":"6728.089","RA_OF_ASC_NODE":"166.6581","NORAD_CAT_ID":"51115","MEAN_MOTION":"15.73132039","APOAPSIS":"351.366","MEAN_MOTION_DDOT":"0.0000000000000","TLE_LINE2":"2 51115  53.2164 166.6581 0002099  26.0634 103.2861 15.73132039  4740","EPHEMERIS_TYPE":"0","PERIOD":"91.537","MEAN_ELEMENT_THEORY":"SGP4","PERIAPSIS":"348.542","MEAN_MOTION_DOT":"0.00084344","LAUNCH_DATE":"2022-01-19","FILE":"3296194","EPOCH":"2022-02-09T20:00:01.000224","REV_AT_EPOCH":"474","INCLINATION":"53.2164","REF_FRAME":"TEME","OBJECT_ID":"2022-005M","DECAY_DATE":null,"ECCENTRICITY":"0.00020990","OBJECT_NAME":"STARLINK-3397","CLASSIFICATION_TYPE":"U","GP_ID":"195647484","TLE_LINE1":"1 51115U 22005M   22040.83334491  .00084344  00000-0  60107-3 0  9995","SITE":"AFETR","MEAN_ANOMALY":"103.2861","RCS_SIZE":"LARGE","TIME_SYSTEM":"UTC","ELEMENT_SET_NO":"999","BSTAR":"0.00060107000000","OBJECT_TYPE":"PAYLOAD","CENTER_NAME":"EARTH","ARG_OF_PERICENTER":"26.0634","COUNTRY_CODE":"US"},{"ARG_OF_PERICENTER":"26.8561","COUNTRY_CODE":"US","OBJECT_TYPE":"PAYLOAD","BSTAR":"0.00059257000000","CENTER_NAME":"EARTH","ELEMENT_SET_NO":"999","MEAN_ANOMALY":"100.0193","SITE":"AFETR","TLE_LINE1":"1 51116U 22005N   22040.83334491  .00083197  00000-0  59257-3 0  9995","TIME_SYSTEM":"UTC","RCS_SIZE":"LARGE","GP_ID":"195647483","ECCENTRICITY":"0.00020320","OBJECT_NAME":"STARLINK-3243","CLASSIFICATION_TYPE":"U","DECAY_DATE":null,"OBJECT_ID":"2022-005N","REF_FRAME":"TEME","EPOCH":"2022-02-09T20:00:01.000224","INCLINATION":"53.2166","REV_AT_EPOCH":"474","MEAN_MOTION_DOT":"0.00083197","PERIAPSIS":"348.534","FILE":"3296194","LAUNCH_DATE":"2022-01-19","TLE_LINE2":"2 51116  53.2166 166.6642 0002032  26.8561 100.0193 15.73150730  4746","MEAN_MOTION_DDOT":"0.0000000000000","PERIOD":"91.536","MEAN_ELEMENT_THEORY":"SGP4","EPHEMERIS_TYPE":"0","MEAN_MOTION":"15.73150730","APOAPSIS":"351.268","SEMIMAJOR_AXIS":"6728.036","RA_OF_ASC_NODE":"166.6642","NORAD_CAT_ID":"51116"}];
